[{"OBJECT_NAME":"ONEWEB-0170","OBJECT_ID":"2021-025AB","EPOCH":"2026-03-09T17:53:16.853280","MEAN_MOTION":13.13469925,"ECCENTRICITY":0.0001665,"INCLINATION":87.9038,"RA_OF_ASC_NODE":340.0039,"ARG_OF_PERICENTER":96.3198,"MEAN_ANOMALY":263.8121,"EPHEMERIS_TYPE":0,"CLASSIFICATION_TYPE":"U","NORAD_CAT_ID":48067,"ELEMENT_SET_NO":999,"REV_AT_EPOCH":24049,"BSTAR":0.00080336914,"MEAN_MOTION_DOT":3.06e-6,"MEAN_MOTION_DDOT":0},{"OBJECT_NAME":"ECHO 2 DEB [METAL OBJ]","OBJECT_ID":"1964-004C","EPOCH":"2026-03-09T15:08:20.746752","MEAN_MOTION":13.26274829,"ECCENTRICITY":0.0170959,"INCLINATION":81.4674,"RA_OF_ASC_NODE":136.5189,"ARG_OF_PERICENTER":7.821,"MEAN_ANOMALY":352.5517,"EPHEMERIS_TYPE":0,"CLASSIFICATION_TYPE":"U","NORAD_CAT_ID":742,"ELEMENT_SET_NO":999,"REV_AT_EPOCH":416,"BSTAR":0.00012585,"MEAN_MOTION_DOT":7.1e-7,"MEAN_MOTION_DDOT":0}]
